{
  "norad_id": 51811,
  "name": "STARLINK-3569",
  "history": [
    {
      "epoch": "2026-03-28T18:31:05.397600",
      "apogee_km": 540.6488597977723,
      "perigee_km": 538.8437073337582,
      "latitude_deg": 48.093442270566825,
      "longitude_deg": 155.17266399995424,
      "semi_major_axis_km": 6917.883283565765,
      "eccentricity": 0.00013047,
      "inclination_deg": 53.2168,
      "raan_deg": 253.458,
      "arg_perigee_deg": 86.992,
      "mean_anomaly_deg": 273.1221,
      "mean_motion_rev_day": 15.08839053
    },
    {
      "epoch": "2026-03-29T04:03:24.265440",
      "apogee_km": 540.5884605853398,
      "perigee_km": 538.9253988846312,
      "latitude_deg": 49.68184165864521,
      "longitude_deg": -166.67303840001114,
      "semi_major_axis_km": 6917.893929734985,
      "eccentricity": 0.0001202,
      "inclination_deg": 53.2168,
      "raan_deg": 251.6738,
      "arg_perigee_deg": 87.7912,
      "mean_anomaly_deg": 272.3218,
      "mean_motion_rev_day": 15.0883557
    }
  ]
}